OBJECT_NAME,OBJECT_ID,EPOCH,MEAN_MOTION,ECCENTRICITY,INCLINATION,RA_OF_ASC_NODE,ARG_OF_PERICENTER,MEAN_ANOMALY,EPHEMERIS_TYPE,CLASSIFICATION_TYPE,NORAD_CAT_ID,ELEMENT_SET_NO,REV_AT_EPOCH,BSTAR,MEAN_MOTION_DOT,MEAN_MOTION_DDOT
STARLINK-3342,2022-001P,2026-07-04T12:07:27.939936,15.18501938,.00017759,53.2155,357.3899,153.3468,206.7620,0,U,50816,999,24814,.30186874E-2,.63267E-3,0
STARLINK-3341,2022-001Q,2026-07-04T14:00:01.999872,15.11955334,.00017797,53.1598,4.1345,80.7647,54.1819,0,U,50817,999,565,.47919653E-2,.838E-3,0
STARLINK-3336,2022-001R,2026-07-04T05:04:47.463744,15.08822215,.00016537,53.1619,5.8389,85.1694,274.9487,0,U,50818,999,24799,.31041267E-4,.206E-5,0
STARLINK-3327,2022-001S,2026-07-04T14:00:01.999872,15.12034247,.00018626,53.1597,4.1416,93.0551,100.9897,0,U,50819,999,574,.53150877E-1,.993459E-2,0
STARLINK-3339,2022-001T,2026-07-04T04:48:53.017632,15.08832163,.00012517,53.1610,5.8879,86.9894,273.1240,0,U,50820,999,24799,.5915808E-4,.654E-5,0
STARLINK-3346,2022-001U,2026-07-04T12:08:41.500032,15.08842133,.00013142,53.1625,4.3991,90.7488,269.3655,0,U,50821,999,24804,.96307613E-4,.1245E-4,0
STARLINK-3343,2022-001V,2026-07-04T12:35:12.288192,15.08834120,.00012834,53.1599,4.4319,96.3267,263.7871,0,U,50822,999,24804,.10570357E-3,.1394E-4,0
STARLINK-3334,2022-001W,2026-07-02T20:02:05.849952,15.09332747,.0002017,53.1613,12.0225,107.1269,252.9944,0,U,50823,999,24779,.38127799E-2,.61757E-3,0
STARLINK-3332,2022-001Y,2026-07-04T12:40:30.279072,15.08835138,.00012441,53.1623,4.4159,93.9928,266.1205,0,U,50825,999,24804,.88332322E-4,.1118E-4,0
STARLINK-3329,2022-001AA,2026-07-04T04:57:41.899680,15.09727948,.00011407,53.1611,5.8481,114.4859,245.6252,0,U,50827,999,24799,.59463566E-2,.98031E-3,0
STARLINK-3290,2022-001AB,2026-07-04T12:36:33.857568,15.08835619,.00010815,53.1606,4.3190,84.0022,276.1092,0,U,50828,999,24789,.76246702E-4,.926E-5,0
STARLINK-3294,2022-001AC,2026-07-04T14:00:01.999872,15.13890668,.00014959,53.1598,4.0919,117.9992,121.5223,0,U,50829,999,580,.44242842E-1,.873003E-2,0
STARLINK-3278,2022-001AD,2026-07-04T14:00:01.999872,15.27073623,.00014533,53.1596,13.3633,111.8635,48.3200,0,U,50830,999,565,.45486455E-1,.1347055E-1,0
STARLINK-3299,2022-001AE,2026-07-03T18:44:46.656384,15.08846592,.00015429,53.1627,7.8427,92.4913,267.6255,0,U,50831,999,24793,-.12751598E-3,-.2317E-4,0
STARLINK-3328,2022-001AF,2026-07-04T13:25:05.573856,15.09582718,.00006378,53.1734,14.2991,120.8679,239.2376,0,U,50832,999,24791,.17190702E-2,.27743E-3,0
STARLINK-3331,2022-001AH,2026-07-04T14:00:01.999872,15.23796585,.00016605,53.1610,13.4450,115.1546,87.0357,0,U,50834,999,574,.38457768E-1,.1021957E-1,0
STARLINK-3310,2022-001AJ,2026-07-04T05:37:42.364704,15.11136980,.00012027,53.2159,15.4840,110.9326,249.1796,0,U,50835,999,24786,.1653105E-2,.27843E-3,0
STARLINK-3330,2022-001AK,2026-07-03T22:31:17.847264,15.29360311,.00012011,53.1611,15.4767,83.5655,276.5482,0,U,50836,999,24773,.10902499E-3,.2792E-4,0
STARLINK-3318,2022-001AL,2026-07-04T14:00:01.999872,15.11436587,.00009022,53.1607,4.1497,63.9996,324.4391,0,U,50837,999,581,.59093301E-1,.1094805E-1,0
STARLINK-3320,2022-001AN,2026-07-04T12:08:56.416128,15.29356823,.00010291,53.1610,12.8565,102.7700,257.3416,0,U,50839,999,24791,.12559775E-4,.7E-7,0
STARLINK-3295,2022-001AP,2026-07-04T14:00:01.999872,15.24064254,.00008503,53.1613,13.4887,97.7471,198.5316,0,U,50840,999,574,.53908153E-1,.144697E-1,0
STARLINK-3300,2022-001AQ,2026-07-04T14:00:01.999872,15.24962995,.00008863,53.1613,13.4106,94.3841,182.2310,0,U,50841,999,564,.48764842E-1,.1335029E-1,0
STARLINK-3302,2022-001AR,2026-07-04T05:45:32.281344,15.29355452,.00011486,53.1609,14.1160,95.5787,264.5345,0,U,50842,999,24787,.4092465E-5,-.238E-5,0
STARLINK-3326,2022-001AT,2026-07-04T14:00:01.999872,15.24887752,.00013168,53.1594,13.4279,78.1114,328.4474,0,U,50844,999,575,.4951157E-2,.126568E-2,0
STARLINK-3230,2022-001AU,2026-07-04T14:00:01.999872,15.29356456,.00009618,53.1594,12.8944,93.8191,346.6790,0,U,50845,999,494,.42471655E-3,.1192E-3,0
STARLINK-3308,2022-001AV,2026-07-03T19:57:24.254208,15.29359461,.00006525,53.1582,15.9918,121.1563,238.9502,0,U,50846,999,24782,-.90557956E-4,-.2968E-4,0
STARLINK-3315,2022-001AX,2026-07-04T14:00:01.999872,15.19218065,.00012075,53.1617,13.8423,89.7562,143.6462,0,U,50848,999,581,.33456464E-1,.770156E-2,0
STARLINK-3311,2022-001AY,2026-07-04T14:00:01.999872,15.24640459,.00015132,53.1592,13.3423,90.2809,340.6813,0,U,50849,999,565,.47895129E-1,.1315818E-1,0
STARLINK-3312,2022-001AZ,2026-07-04T14:00:01.999872,15.20302880,.00010526,53.1592,333.6129,89.3427,181.7779,0,U,50850,999,569,.36906511E-2,.81792E-3,0
STARLINK-3314,2022-001BA,2026-07-04T14:00:01.999872,15.24608252,.00016337,53.1592,13.4399,94.7411,5.8341,0,U,50851,999,574,.53258654E-1,.1453211E-1,0
