STARLINK-3342           
1 50816U 22001P   26185.50518449  .00063267  00000+0  30187-2 0  9997
2 50816  53.2155 357.3899 0001775 153.3468 206.7620 15.18501938248140
STARLINK-3341           
1 50817U 22001Q   26185.58335648  .00083800  00000+0  47920-2 0  9992
2 50817  53.1598   4.1345 0001779  80.7647  54.1819 15.11955334  5658
STARLINK-3336           
1 50818U 22001R   26185.21166046  .00000206  00000+0  31041-4 0  9995
2 50818  53.1619   5.8389 0001653  85.1694 274.9487 15.08822215247996
STARLINK-3327           
1 50819U 22001S   26185.58335648  .00993459  00000+0  53151-1 0  9996
2 50819  53.1597   4.1416 0001862  93.0551 100.9897 15.12034247  5740
STARLINK-3339           
1 50820U 22001T   26185.20061363  .00000654  00000+0  59158-4 0  9999
2 50820  53.1610   5.8879 0001251  86.9894 273.1240 15.08832163247990
STARLINK-3346           
1 50821U 22001U   26185.50603588  .00001245  00000+0  96308-4 0  9999
2 50821  53.1625   4.3991 0001314  90.7488 269.3655 15.08842133248040
STARLINK-3343           
1 50822U 22001V   26185.52444778  .00001394  00000+0  10570-3 0  9997
2 50822  53.1599   4.4319 0001283  96.3267 263.7871 15.08834120248043
STARLINK-3334           
1 50823U 22001W   26183.83478993  .00061757  00000+0  38128-2 0  9993
2 50823  53.1613  12.0225 0002017 107.1269 252.9944 15.09332747247792
STARLINK-3332           
1 50825U 22001Y   26185.52812823  .00001118  00000+0  88332-4 0  9996
2 50825  53.1623   4.4159 0001244  93.9928 266.1205 15.08835138248048
STARLINK-3329           
1 50827U 22001AA  26185.20673495  .00098031  00000+0  59464-2 0  9995
2 50827  53.1611   5.8481 0001140 114.4859 245.6252 15.09727948247994
STARLINK-3290           
1 50828U 22001AB  26185.52539187  .00000926  00000+0  76247-4 0  9996
2 50828  53.1606   4.3190 0001081  84.0022 276.1092 15.08835619247892
STARLINK-3294           
1 50829U 22001AC  26185.58335648  .00873003  00000+0  44243-1 0  9991
2 50829  53.1598   4.0919 0001495 117.9992 121.5223 15.13890668  5803
STARLINK-3278           
1 50830U 22001AD  26185.58335648  .01347055  00000+0  45486-1 0  9997
2 50830  53.1596  13.3633 0001453 111.8635  48.3200 15.27073623  5653
STARLINK-3299           
1 50831U 22001AE  26184.78109556 -.00002317  00000+0 -12752-3 0  9998
2 50831  53.1627   7.8427 0001542  92.4913 267.6255 15.08846592247937
STARLINK-3328           
1 50832U 22001AF  26185.55909229  .00027743  00000+0  17191-2 0  9999
2 50832  53.1734  14.2991 0000637 120.8679 239.2376 15.09582718247919
STARLINK-3331           
1 50834U 22001AH  26185.58335648  .01021957  00000+0  38458-1 0  9992
2 50834  53.1610  13.4450 0001660 115.1546  87.0357 15.23796585  5748
STARLINK-3310           
1 50835U 22001AJ  26185.23451811  .00027843  00000+0  16531-2 0  9994
2 50835  53.2159  15.4840 0001202 110.9326 249.1796 15.11136980247867
STARLINK-3330           
1 50836U 22001AK  26184.93840101  .00002792  00000+0  10902-3 0  9998
2 50836  53.1611  15.4767 0001201  83.5655 276.5482 15.29360311247735
STARLINK-3318           
1 50837U 22001AL  26185.58335648  .01094805  00000+0  59093-1 0  9995
2 50837  53.1607   4.1497 0000902  63.9996 324.4391 15.11436587  5816
STARLINK-3320           
1 50839U 22001AN  26185.50620852  .00000007  00000+0  12560-4 0  9994
2 50839  53.1610  12.8565 0001029 102.7700 257.3416 15.29356823247914
STARLINK-3295           
1 50840U 22001AP  26185.58335648  .01446970  00000+0  53908-1 0  9992
2 50840  53.1613  13.4887 0000850  97.7471 198.5316 15.24064254  5749
STARLINK-3300           
1 50841U 22001AQ  26185.58335648  .01335029  00000+0  48765-1 0  9990
2 50841  53.1613  13.4106 0000886  94.3841 182.2310 15.24962995  5649
STARLINK-3302           
1 50842U 22001AR  26185.23995696 -.00000238  00000+0  40925-5 0  9993
2 50842  53.1609  14.1160 0001148  95.5787 264.5345 15.29355452247871
STARLINK-3326           
1 50844U 22001AT  26185.58335648  .00126568  00000+0  49512-2 0  9990
2 50844  53.1594  13.4279 0001316  78.1114 328.4474 15.24887752  5757
STARLINK-3230           
1 50845U 22001AU  26185.58335648  .00011920  00000+0  42472-3 0  9995
2 50845  53.1594  12.8944 0000961  93.8191 346.6790 15.29356456  4944
STARLINK-3308           
1 50846U 22001AV  26184.83153072 -.00002968  00000+0 -90558-4 0  9995
2 50846  53.1582  15.9918 0000652 121.1563 238.9502 15.29359461247821
STARLINK-3315           
1 50848U 22001AX  26185.58335648  .00770156  00000+0  33456-1 0  9991
2 50848  53.1617  13.8423 0001207  89.7562 143.6462 15.19218065  5816
STARLINK-3311           
1 50849U 22001AY  26185.58335648  .01315818  00000+0  47895-1 0  9995
2 50849  53.1592  13.3423 0001513  90.2809 340.6813 15.24640459  5658
STARLINK-3312           
1 50850U 22001AZ  26185.58335648  .00081792  00000+0  36907-2 0  9990
2 50850  53.1592 333.6129 0001052  89.3427 181.7779 15.20302880  5692
STARLINK-3314           
1 50851U 22001BA  26185.58335648  .01453211  00000+0  53259-1 0  9999
2 50851  53.1592  13.4399 0001633  94.7411   5.8341 15.24608252  5746
